{
  "type": "FeatureCollection",
  "features": [
    {
      "type": "Feature",
      "properties": {
        "norad_id": 34722,
        "name": "COSMOS 2251 DEB",
        "group": "cosmos-2251-debris",
        "lat": 55.481700192338906,
        "lon": 7.256467425439826,
        "alt_km": 952.0854379828288,
        "timestamp": "2025-12-09T04:51:47.886418+00:00",
        "meta_object_name": "COSMOS 2251 DEB",
        "meta_object_id": "1993-036YQ",
        "meta_epoch": "2025-12-08T01:39:18.911232",
        "meta_mean_motion": 14.11910631,
        "meta_eccentricity": 0.0167316,
        "meta_inclination": 73.8726,
        "meta_ra_of_asc_node": 344.3987,
        "meta_arg_of_pericenter": 270.7554,
        "meta_mean_anomaly": 147.3377,
        "meta_ephemeris_type": 0,
        "meta_classification_type": "U",
        "meta_norad_cat_id": 34722,
        "meta_element_set_no": 999,
        "meta_rev_at_epoch": 86179,
        "meta_bstar": 0.0012190185,
        "meta_mean_motion_dot": 2.515e-05,
        "meta_mean_motion_ddot": 0,
        "tle_line1": "1 34722U 93036YQ  25342.06896888  .00002515  00000+0  12190-2 0  9995",
        "tle_line2": "2 34722  73.8726 344.3987 0167316 270.7554 147.3377 14.11910631861795"
      },
      "geometry": {
        "type": "Point",
        "coordinates": [
          7.256467425439826,
          55.481700192338906
        ]
      }
    },
    {
      "type": "Feature",
      "properties": {
        "norad_id": 34726,
        "name": "COSMOS 2251 DEB",
        "group": "cosmos-2251-debris",
        "lat": -21.18817562412858,
        "lon": 179.44554329555058,
        "alt_km": 683.462006130555,
        "timestamp": "2025-12-09T04:51:47.886428+00:00",
        "meta_object_name": "COSMOS 2251 DEB",
        "meta_object_id": "1993-036YU",
        "meta_epoch": "2025-12-08T11:29:33.895392",
        "meta_mean_motion": 14.59458028,
        "meta_eccentricity": 0.00422049,
        "meta_inclination": 74.029,
        "meta_ra_of_asc_node": 354.4517,
        "meta_arg_of_pericenter": 146.6151,
        "meta_mean_anomaly": 213.7689,
        "meta_ephemeris_type": 0,
        "meta_classification_type": "U",
        "meta_norad_cat_id": 34726,
        "meta_element_set_no": 999,
        "meta_rev_at_epoch": 88440,
        "meta_bstar": 0.00067581439,
        "meta_mean_motion_dot": 3.216e-05,
        "meta_mean_motion_ddot": 0,
        "tle_line1": "1 34726U 93036YU  25342.47886453  .00003216  00000+0  67581-3 0  9995",
        "tle_line2": "2 34726  74.0290 354.4517 0042204 146.6151 213.7689 14.59458028884407"
      },
      "geometry": {
        "type": "Point",
        "coordinates": [
          179.44554329555058,
          -21.18817562412858
        ]
      }
    },
    {
      "type": "Feature",
      "properties": {
        "norad_id": 34728,
        "name": "COSMOS 2251 DEB",
        "group": "cosmos-2251-debris",
        "lat": -60.802857705809316,
        "lon": -132.2092997138415,
        "alt_km": 680.7670222820361,
        "timestamp": "2025-12-09T04:51:47.886454+00:00",
        "meta_object_name": "COSMOS 2251 DEB",
        "meta_object_id": "1993-036YW",
        "meta_epoch": "2025-12-08T04:40:21.187488",
        "meta_mean_motion": 14.70775682,
        "meta_eccentricity": 0.00410887,
        "meta_inclination": 74.018,
        "meta_ra_of_asc_node": 260.6035,
        "meta_arg_of_pericenter": 59.4394,
        "meta_mean_anomaly": 301.0821,
        "meta_ephemeris_type": 0,
        "meta_classification_type": "U",
        "meta_norad_cat_id": 34728,
        "meta_element_set_no": 999,
        "meta_rev_at_epoch": 88733,
        "meta_bstar": 0.0011226976,
        "meta_mean_motion_dot": 6.918e-05,
        "meta_mean_motion_ddot": 0,
        "tle_line1": "1 34728U 93036YW  25342.19468967  .00006918  00000+0  11227-2 0  9999",
        "tle_line2": "2 34728  74.0180 260.6035 0041088  59.4394 301.0821 14.70775682887334"
      },
      "geometry": {
        "type": "Point",
        "coordinates": [
          -132.2092997138415,
          -60.802857705809316
        ]
      }
    },
    {
      "type": "Feature",
      "properties": {
        "norad_id": 34729,
        "name": "COSMOS 2251 DEB",
        "group": "cosmos-2251-debris",
        "lat": 21.478400993605607,
        "lon": 178.96049274520658,
        "alt_km": 613.382165534128,
        "timestamp": "2025-12-09T04:51:47.886467+00:00",
        "meta_object_name": "COSMOS 2251 DEB",
        "meta_object_id": "1993-036YX",
        "meta_epoch": "2025-12-08T12:38:33.716832",
        "meta_mean_motion": 14.82610152,
        "meta_eccentricity": 0.00118663,
        "meta_inclination": 74.018,
        "meta_ra_of_asc_node": 6.7731,
        "meta_arg_of_pericenter": 128.2562,
        "meta_mean_anomaly": 23.3369,
        "meta_ephemeris_type": 0,
        "meta_classification_type": "U",
        "meta_norad_cat_id": 34729,
        "meta_element_set_no": 999,
        "meta_rev_at_epoch": 88395,
        "meta_bstar": 0.0023481946,
        "meta_mean_motion_dot": 0.00018951,
        "meta_mean_motion_ddot": 0,
        "tle_line1": "1 34729U 93036YX  25342.52677913  .00018951  00000+0  23482-2 0  9996",
        "tle_line2": "2 34729  74.0180   6.7731 0011866 128.2562  23.3369 14.82610152883958"
      },
      "geometry": {
        "type": "Point",
        "coordinates": [
          178.96049274520658,
          21.478400993605607
        ]
      }
    },
    {
      "type": "Feature",
      "properties": {
        "norad_id": 34732,
        "name": "COSMOS 2251 DEB",
        "group": "cosmos-2251-debris",
        "lat": 61.64009412329009,
        "lon": -112.20903609387528,
        "alt_km": 749.3903739596835,
        "timestamp": "2025-12-09T04:51:47.886478+00:00",
        "meta_object_name": "COSMOS 2251 DEB",
        "meta_object_id": "1993-036ZA",
        "meta_epoch": "2025-12-08T19:05:29.361408",
        "meta_mean_motion": 14.47294366,
        "meta_eccentricity": 0.0040456,
        "meta_inclination": 74.045,
        "meta_ra_of_asc_node": 100.5559,
        "meta_arg_of_pericenter": 252.3107,
        "meta_mean_anomaly": 261.1721,
        "meta_ephemeris_type": 0,
        "meta_classification_type": "U",
        "meta_norad_cat_id": 34732,
        "meta_element_set_no": 999,
        "meta_rev_at_epoch": 88086,
        "meta_bstar": 0.00031405,
        "meta_mean_motion_dot": 1.133e-05,
        "meta_mean_motion_ddot": 0,
        "tle_line1": "1 34732U 93036ZA  25342.79547872  .00001133  00000+0  31405-3 0  9998",
        "tle_line2": "2 34732  74.0450 100.5559 0040456 252.3107 261.1721 14.47294366880861"
      },
      "geometry": {
        "type": "Point",
        "coordinates": [
          -112.20903609387528,
          61.64009412329009
        ]
      }
    },
    {
      "type": "Feature",
      "properties": {
        "norad_id": 34736,
        "name": "COSMOS 2251 DEB",
        "group": "cosmos-2251-debris",
        "lat": 62.90056180648199,
        "lon": 78.06069045112616,
        "alt_km": 425.65774075687386,
        "timestamp": "2025-12-09T04:51:47.886488+00:00",
        "meta_object_name": "COSMOS 2251 DEB",
        "meta_object_id": "1993-036ZE",
        "meta_epoch": "2025-12-08T14:34:25.701024",
        "meta_mean_motion": 15.43608373,
        "meta_eccentricity": 0.0016929,
        "meta_inclination": 74.0019,
        "meta_ra_of_asc_node": 45.2532,
        "meta_arg_of_pericenter": 349.9791,
        "meta_mean_anomaly": 10.1078,
        "meta_ephemeris_type": 0,
        "meta_classification_type": "U",
        "meta_norad_cat_id": 34736,
        "meta_element_set_no": 999,
        "meta_rev_at_epoch": 88384,
        "meta_bstar": 0.0078832,
        "meta_mean_motion_dot": 0.00373965,
        "meta_mean_motion_ddot": 0,
        "tle_line1": "1 34736U 93036ZE  25342.60724191  .00373965  00000+0  78832-2 0  9992",
        "tle_line2": "2 34736  74.0019  45.2532 0016929 349.9791  10.1078 15.43608373883844"
      },
      "geometry": {
        "type": "Point",
        "coordinates": [
          78.06069045112616,
          62.90056180648199
        ]
      }
    },
    {
      "type": "Feature",
      "properties": {
        "norad_id": 34738,
        "name": "COSMOS 2251 DEB",
        "group": "cosmos-2251-debris",
        "lat": 20.387556111356595,
        "lon": -36.23884116476607,
        "alt_km": 762.4159372395434,
        "timestamp": "2025-12-09T04:51:47.886498+00:00",
        "meta_object_name": "COSMOS 2251 DEB",
        "meta_object_id": "1993-036ZG",
        "meta_epoch": "2025-12-08T18:14:28.935168",
        "meta_mean_motion": 14.46289263,
        "meta_eccentricity": 0.0047285,
        "meta_inclination": 74.0142,
        "meta_ra_of_asc_node": 150.7039,
        "meta_arg_of_pericenter": 297.7072,
        "meta_mean_anomaly": 77.8788,
        "meta_ephemeris_type": 0,
        "meta_classification_type": "U",
        "meta_norad_cat_id": 34738,
        "meta_element_set_no": 999,
        "meta_rev_at_epoch": 87801,
        "meta_bstar": 0.00060363,
        "meta_mean_motion_dot": 2.166e-05,
        "meta_mean_motion_ddot": 0,
        "tle_line1": "1 34738U 93036ZG  25342.76005712  .00002166  00000+0  60363-3 0  9995",
        "tle_line2": "2 34738  74.0142 150.7039 0047285 297.7072  77.8788 14.46289263878014"
      },
      "geometry": {
        "type": "Point",
        "coordinates": [
          -36.23884116476607,
          20.387556111356595
        ]
      }
    }
  ]
}